[
    {
        "OBJECT_NAME": "TIANMU-1 19",
        "OBJECT_ID": "2023-208A",
        "EPOCH": "2026-06-08T03:21:15.383232",
        "MEAN_MOTION": 15.31438804,
        "ECCENTRICITY": 0.0004589,
        "INCLINATION": 97.4492,
        "RA_OF_ASC_NODE": 275.3952,
        "ARG_OF_PERICENTER": 5.5356,
        "MEAN_ANOMALY": 354.5935,
        "EPHEMERIS_TYPE": 0,
        "CLASSIFICATION_TYPE": "U",
        "NORAD_CAT_ID": 58660,
        "ELEMENT_SET_NO": 999,
        "REV_AT_EPOCH": 13594,
        "BSTAR": 0.00029767,
        "MEAN_MOTION_DOT": 8.963e-5,
        "MEAN_MOTION_DDOT": 0
    },
    {
        "OBJECT_NAME": "TIANMU-1 20",
        "OBJECT_ID": "2023-208B",
        "EPOCH": "2026-06-08T04:25:48.304704",
        "MEAN_MOTION": 15.32628914,
        "ECCENTRICITY": 0.000684,
        "INCLINATION": 97.4434,
        "RA_OF_ASC_NODE": 276.0662,
        "ARG_OF_PERICENTER": 8.2382,
        "MEAN_ANOMALY": 351.8971,
        "EPHEMERIS_TYPE": 0,
        "CLASSIFICATION_TYPE": "U",
        "NORAD_CAT_ID": 58661,
        "ELEMENT_SET_NO": 999,
        "REV_AT_EPOCH": 13604,
        "BSTAR": 0.00022972,
        "MEAN_MOTION_DOT": 7.163e-5,
        "MEAN_MOTION_DDOT": 0
    },
    {
        "OBJECT_NAME": "TIANMU-1 21",
        "OBJECT_ID": "2023-208C",
        "EPOCH": "2026-06-08T04:28:25.900896",
        "MEAN_MOTION": 15.34916483,
        "ECCENTRICITY": 0.0006694,
        "INCLINATION": 97.4492,
        "RA_OF_ASC_NODE": 278.71,
        "ARG_OF_PERICENTER": 0.4036,
        "MEAN_ANOMALY": 359.7211,
        "EPHEMERIS_TYPE": 0,
        "CLASSIFICATION_TYPE": "U",
        "NORAD_CAT_ID": 58662,
        "ELEMENT_SET_NO": 999,
        "REV_AT_EPOCH": 13618,
        "BSTAR": 0.00025145,
        "MEAN_MOTION_DOT": 8.439e-5,
        "MEAN_MOTION_DDOT": 0
    },
    {
        "OBJECT_NAME": "TIANMU-1 22",
        "OBJECT_ID": "2023-208D",
        "EPOCH": "2026-06-08T04:24:49.231296",
        "MEAN_MOTION": 15.30933844,
        "ECCENTRICITY": 0.0004064,
        "INCLINATION": 97.4487,
        "RA_OF_ASC_NODE": 275.3831,
        "ARG_OF_PERICENTER": 34.0664,
        "MEAN_ANOMALY": 326.0837,
        "EPHEMERIS_TYPE": 0,
        "CLASSIFICATION_TYPE": "U",
        "NORAD_CAT_ID": 58663,
        "ELEMENT_SET_NO": 999,
        "REV_AT_EPOCH": 13595,
        "BSTAR": 0.00027592,
        "MEAN_MOTION_DOT": 8.172e-5,
        "MEAN_MOTION_DDOT": 0
    },
    {
        "OBJECT_NAME": "TIANMU-1 15",
        "OBJECT_ID": "2024-004A",
        "EPOCH": "2026-06-08T04:28:28.319232",
        "MEAN_MOTION": 15.26932511,
        "ECCENTRICITY": 0.0007588,
        "INCLINATION": 97.4675,
        "RA_OF_ASC_NODE": 345.3758,
        "ARG_OF_PERICENTER": 32.5809,
        "MEAN_ANOMALY": 327.5897,
        "EPHEMERIS_TYPE": 0,
        "CLASSIFICATION_TYPE": "U",
        "NORAD_CAT_ID": 58700,
        "ELEMENT_SET_NO": 999,
        "REV_AT_EPOCH": 13440,
        "BSTAR": 0.00025249,
        "MEAN_MOTION_DOT": 6.608e-5,
        "MEAN_MOTION_DDOT": 0
    },
    {
        "OBJECT_NAME": "TIANMU-1 16",
        "OBJECT_ID": "2024-004B",
        "EPOCH": "2026-06-08T04:10:38.237952",
        "MEAN_MOTION": 15.26657859,
        "ECCENTRICITY": 0.0006693,
        "INCLINATION": 97.4621,
        "RA_OF_ASC_NODE": 344.6105,
        "ARG_OF_PERICENTER": 37.1965,
        "MEAN_ANOMALY": 322.9736,
        "EPHEMERIS_TYPE": 0,
        "CLASSIFICATION_TYPE": "U",
        "NORAD_CAT_ID": 58701,
        "ELEMENT_SET_NO": 999,
        "REV_AT_EPOCH": 13440,
        "BSTAR": 0.00024694,
        "MEAN_MOTION_DOT": 6.406e-5,
        "MEAN_MOTION_DDOT": 0
    },
    {
        "OBJECT_NAME": "TIANMU-1 17",
        "OBJECT_ID": "2024-004C",
        "EPOCH": "2026-06-08T05:24:04.123008",
        "MEAN_MOTION": 15.2665572,
        "ECCENTRICITY": 0.0006369,
        "INCLINATION": 97.465,
        "RA_OF_ASC_NODE": 345.1431,
        "ARG_OF_PERICENTER": 42.5292,
        "MEAN_ANOMALY": 317.6438,
        "EPHEMERIS_TYPE": 0,
        "CLASSIFICATION_TYPE": "U",
        "NORAD_CAT_ID": 58702,
        "ELEMENT_SET_NO": 999,
        "REV_AT_EPOCH": 13440,
        "BSTAR": 0.00019514,
        "MEAN_MOTION_DOT": 5.045e-5,
        "MEAN_MOTION_DDOT": 0
    },
    {
        "OBJECT_NAME": "TIANMU-1 18",
        "OBJECT_ID": "2024-004D",
        "EPOCH": "2026-06-08T04:52:14.874816",
        "MEAN_MOTION": 15.26916547,
        "ECCENTRICITY": 0.0004868,
        "INCLINATION": 97.4667,
        "RA_OF_ASC_NODE": 345.3708,
        "ARG_OF_PERICENTER": 42.4121,
        "MEAN_ANOMALY": 317.7493,
        "EPHEMERIS_TYPE": 0,
        "CLASSIFICATION_TYPE": "U",
        "NORAD_CAT_ID": 58703,
        "ELEMENT_SET_NO": 999,
        "REV_AT_EPOCH": 13440,
        "BSTAR": 0.00024588,
        "MEAN_MOTION_DOT": 6.427e-5,
        "MEAN_MOTION_DDOT": 0
    },
    {
        "OBJECT_NAME": "INSAT-3DS",
        "OBJECT_ID": "2024-033A",
        "EPOCH": "2026-06-08T01:47:43.406016",
        "MEAN_MOTION": 1.00273229,
        "ECCENTRICITY": 0.0001289,
        "INCLINATION": 0.0143,
        "RA_OF_ASC_NODE": 154.321,
        "ARG_OF_PERICENTER": 278.9209,
        "MEAN_ANOMALY": 292.239,
        "EPHEMERIS_TYPE": 0,
        "CLASSIFICATION_TYPE": "U",
        "NORAD_CAT_ID": 58990,
        "ELEMENT_SET_NO": 999,
        "REV_AT_EPOCH": 4697,
        "BSTAR": 0,
        "MEAN_MOTION_DOT": -1.41e-6,
        "MEAN_MOTION_DDOT": 0
    },
    {
        "OBJECT_NAME": "METEOR-M2 4",
        "OBJECT_ID": "2024-039A",
        "EPOCH": "2026-06-08T04:18:41.698656",
        "MEAN_MOTION": 14.22428666,
        "ECCENTRICITY": 0.0006759,
        "INCLINATION": 98.7013,
        "RA_OF_ASC_NODE": 118.5911,
        "ARG_OF_PERICENTER": 186.8179,
        "MEAN_ANOMALY": 173.2908,
        "EPHEMERIS_TYPE": 0,
        "CLASSIFICATION_TYPE": "U",
        "NORAD_CAT_ID": 59051,
        "ELEMENT_SET_NO": 999,
        "REV_AT_EPOCH": 11798,
        "BSTAR": 3.043e-5,
        "MEAN_MOTION_DOT": 2.4e-7,
        "MEAN_MOTION_DDOT": 0
    },
    {
        "OBJECT_NAME": "GOES 19",
        "OBJECT_ID": "2024-119A",
        "EPOCH": "2026-06-08T02:45:28.745856",
        "MEAN_MOTION": 1.00270085,
        "ECCENTRICITY": 4.78e-5,
        "INCLINATION": 0.0154,
        "RA_OF_ASC_NODE": 90.4331,
        "ARG_OF_PERICENTER": 64.7853,
        "MEAN_ANOMALY": 67.4679,
        "EPHEMERIS_TYPE": 0,
        "CLASSIFICATION_TYPE": "U",
        "NORAD_CAT_ID": 60133,
        "ELEMENT_SET_NO": 999,
        "REV_AT_EPOCH": 687,
        "BSTAR": 0,
        "MEAN_MOTION_DOT": 0,
        "MEAN_MOTION_DDOT": 0
    },
    {
        "OBJECT_NAME": "MTG-S1",
        "OBJECT_ID": "2025-143A",
        "EPOCH": "2026-06-08T03:05:56.482944",
        "MEAN_MOTION": 1.0027163,
        "ECCENTRICITY": 0.0001056,
        "INCLINATION": 0.6113,
        "RA_OF_ASC_NODE": 336.8634,
        "ARG_OF_PERICENTER": 29.9381,
        "MEAN_ANOMALY": 292.7306,
        "EPHEMERIS_TYPE": 0,
        "CLASSIFICATION_TYPE": "U",
        "NORAD_CAT_ID": 64723,
        "ELEMENT_SET_NO": 999,
        "REV_AT_EPOCH": 332,
        "BSTAR": 0,
        "MEAN_MOTION_DOT": -1.7e-7,
        "MEAN_MOTION_DDOT": 0
    }
]